1 38858U 12055B   21001.78045233  .00000065  00000-0  00000+0 0  9991
2 38858  55.0132 156.3223 0000502 183.8513 176.1056  1.70473549 51145
1 38858U 12055B   21001.78045233  .00000065  00000-0  00000-0 0  9992
2 38858  55.0132 156.3223 0000502 183.8513 176.1056  1.70473549 51190
1 38858U 12055B   21002.36703899  .00000065  00000-0  00000-0 0  9996
2 38858  55.0133 156.3061 0000501 183.9280 176.0302  1.70473543 51201
1 38858U 12055B   21004.12680152  .00000068  00000-0  00000-0 0  9991
2 38858  55.0132 156.2577 0000513 189.4812 170.4825  1.70473502 51232
1 38858U 12055B   21004.12680175  .00000068  00000-0  00000+0 0  9995
2 38858  55.0134 156.2578 0000508 188.8542 171.1095  1.70473507 51188
1 38858U 12055B   21004.71338913  .00000069  00000-0  00000-0 0  9992
2 38858  55.0148 156.2417 0000518 190.6806 169.2850  1.70473490 51245
1 38858U 12055B   21006.47314584  .00000067  00000-0  00000-0 0  9993
2 38858  55.0152 156.1932 0000542 194.7713 165.1960  1.70473475 51273
1 38858U 12055B   21007.05972828  .00000064  00000-0  00000-0 0  9996
2 38858  55.0153 156.1771 0000551 196.7056 163.2605  1.70473471 51289
1 38858U 12055B   21007.64630969  .00000059  00000-0  00000-0 0  9992
2 38858  55.0154 156.1609 0000550 196.9597 163.0042  1.70473471 51295
1 38858U 12055B   21011.16577684  .00000021  00000-0  00000+0 0  9996
2 38858  55.0161 156.0641 0000621 205.5148 154.4246  1.70473512 51304
1 38858U 12055B   21011.16577684  .00000021  00000-0  00000-0 0  9997
2 38858  55.0161 156.0641 0000621 205.5148 154.4246  1.70473512 51359
1 38858U 12055B   21011.75235610  .00000016  00000-0  00000-0 0  9996
2 38858  55.0162 156.0480 0000629 206.5913 153.3448  1.70473522 51364
1 38858U 12055B   21012.92551901  .00000011  00000-0  00000-0 0  9995
2 38858  55.0165 156.0157 0000645 208.7048 151.2274  1.70473546 51381
1 38858U 12055B   21013.51210290  .00000010  00000-0  00000+0 0  9992
2 38858  55.0166 155.9995 0000651 209.5729 150.3589  1.70473561 51344
1 38858U 12055B   21014.09868817  .00000011  00000-0  00000-0 0  9992
2 38858  55.0167 155.9834 0000672 211.9590 147.9731  1.70473574 51405
1 38858U 12055B   21014.09868832  .00000011  00000-0  00000-0 0  9999
2 38858  55.0167 155.9834 0000665 211.1338 148.7985  1.70473563 51407
1 38858U 12055B   21015.85845203  .00000017  00000-0  00000+0 0  9996
2 38858  55.0170 155.9350 0000690 214.0372 145.9012  1.70473601 51382
1 38858U 12055B   21016.44504134  .00000020  00000-0  00000-0 0  9992
2 38858  55.0172 155.9189 0000699 214.7952 145.1461  1.70473613 51444
1 38858U 12055B   21017.61822028  .00000025  00000-0  00000-0 0  9992
2 38858  55.0174 155.8866 0000727 217.1525 142.7948  1.70473631 51467
1 38858U 12055B   21018.20480920  .00000027  00000-0  00000+0 0  9990
2 38858  55.0175 155.8705 0000745 218.6293 141.3206  1.70473642 51428
1 38858U 12055B   21018.79139725  .00000028  00000-0  00000-0 0  9990
2 38858  55.0176 155.8543 0000753 219.1291 140.8231  1.70473646 51484
1 38858U 12055B   21019.37798448  .00000029  00000-0  00000-0 0  9999
2 38858  55.0178 155.8382 0000774 220.6924 139.2613  1.70473647 51498
1 38858U 12055B   21020.55115607  .00000030  00000-0  00000+0 0  9992
2 38858  55.0179 155.8059 0000800 222.6948 137.2606  1.70473648 51466
1 38858U 12055B   21020.55115607  .00000030  00000-0  00000-0 0  9993
2 38858  55.0179 155.8059 0000800 222.6948 137.2606  1.70473648 51512
1 38858U 12055B   21021.13774029  .00000029  00000-0  00000-0 0  9995
2 38858  55.0180 155.7898 0000818 224.2907 135.6645  1.70473645 51529
1 38858U 12055B   21021.72432358  .00000029  00000-0  00000-0 0  9996
2 38858  55.0181 155.7737 0000830 225.2155 134.7390  1.70473641 51536
1 38858U 12055B   21023.48406907  .00000026  00000-0  00000+0 0  9998
2 38858  55.0184 155.7253 0000871 228.7298 131.2200  1.70473618 51517
1 38858U 12055B   21023.48406907  .00000026  00000-0  00000-0 0  9999
2 38858  55.0184 155.7253 0000871 228.7298 131.2200  1.70473618 51562
1 38858U 12055B   21024.07065012  .00000025  00000-0  00000-0 0  9992
2 38858  55.0185 155.7091 0000882 229.6525 130.2952  1.70473609 51572
1 38858U 12055B   21025.83039432  .00000022  00000-0  00000+0 0  9990
2 38858  55.0187 155.6608 0000933 232.7729 127.1690  1.70473559 51551
1 38858U 12055B   21028.17673152  .00000018  00000-0  00000+0 0  9998
2 38858  55.0191 155.5962 0000975 234.5519 125.3893  1.70473518 51595
1 38858U 12055B   21028.17673152  .00000018  00000-0  00000-0 0  9999
2 38858  55.0191 155.5962 0000975 234.5519 125.3893  1.70473518 51641
1 38858U 12055B   21029.34990702  .00000019  00000-0  00000-0 0  9993
2 38858  55.0193 155.5640 0001007 235.9958 123.9491  1.70473494 51668
1 38858U 12055B   21029.93649588  .00000020  00000-0  00000-0 0  9993
2 38858  55.0194 155.5479 0001047 237.6447 122.3027  1.70473469 51676
1 38858U 12055B   21032.86944420  .00000025  00000-0  00000+0 0  9996
2 38858  55.0197 155.4670 0001140 240.7651 119.1976  1.70473431 51673
1 38858U 12055B   21032.86944420  .00000025  00000-0  00000-0 0  9997
2 38858  55.0197 155.4670 0001140 240.7651 119.1976  1.70473431 51729
1 38858U 12055B   21034.62920183  .00000019  00000-0  00000-0 0  9996
2 38858  55.0199 155.4185 0001175 241.8907 118.0743  1.70473429 51756
1 38858U 12055B   21035.21578447  .00000014  00000-0  00000+0 0  9998
2 38858  55.0199 155.4024 0001196 242.3203 117.6433  1.70473427 51711
1 38858U 12055B   21035.21578447  .00000014  00000-0  00000-0 0  9999
2 38858  55.0199 155.4024 0001196 242.3203 117.6433  1.70473427 51766
1 38858U 12055B   21035.80236539  .00000009  00000-0  00000-0 0  9991
2 38858  55.0200 155.3863 0001233 243.2620 116.6992  1.70473428 51775
1 38858U 12055B   21037.56210499 -.00000010  00000-0  00000+0 0  9995
2 38858  55.0203 155.3379 0001272 243.9279 116.0243  1.70473440 51755
1 38858U 12055B   21037.56210499 -.00000010  00000-0  00000-0 0  9996
2 38858  55.0203 155.3379 0001272 243.9279 116.0243  1.70473440 51801
1 38858U 12055B   21038.73526486 -.00000021  00000-0  00000-0 0  9994
2 38858  55.0204 155.3056 0001343 245.4190 114.5273  1.70473466 51828
1 38858U 12055B   21038.73526534 -.00000021  00000-0  00000-0 0  9998
2 38858  55.0204 155.3056 0001317 244.8446 115.1020  1.70473458 51824
1 38858U 12055B   21040.49501567 -.00000029  00000-0  00000+0 0  9990
2 38858  55.0206 155.2572 0001393 246.5382 113.4059  1.70473491 51808
1 38858U 12055B   21040.49501567 -.00000029  00000-0  00000-0 0  9991
2 38858  55.0206 155.2572 0001393 246.5382 113.4059  1.70473491 51853
1 38858U 12055B   21041.08160254 -.00000028  00000-0  00000-0 0  9990
2 38858  55.0209 155.2411 0001418 247.0023 112.9431  1.70473506 51860
1 38858U 12055B   21041.66819031 -.00000027  00000-0  00000-0 0  9997
2 38858  55.0204 155.2249 0001448 247.1802 112.7673  1.70473531 51878
1 38858U 12055B   21042.84137032 -.00000021  00000-0  00000+0 0  9995
2 38858  55.0204 155.1927 0001484 247.7521 112.2020  1.70473558 51841
1 38858U 12055B   21042.84137032 -.00000021  00000-0  00000-0 0  9996
2 38858  55.0204 155.1927 0001484 247.7521 112.2020  1.70473558 51896
1 38858U 12055B   21046.36091558 -.00000005  00000-0  00000+0 0  9990
2 38858  55.0208 155.0958 0001581 249.4909 110.4864  1.70473610 51907
1 38858U 12055B   21046.36091558 -.00000005  00000-0  00000-0 0  9991
2 38858  55.0208 155.0958 0001581 249.4909 110.4864  1.70473610 51952
1 38858U 12055B   21048.12067808 -.00000003  00000-0  00000-0 0  9996
2 38858  55.0214 155.0473 0001660 251.2795 108.7031  1.70473624 51987
